LEMUR-2-GREENBERG       
1 42837U 17042N   26068.46200528  .00019778  00000+0  72539-3 0  9997
2 42837  97.3781 249.8007 0009157   4.0119 356.1192 15.27971352473146
STARLINK-32555          
1 61918U 24207G   26068.01253694  .00023928  00000+0  87581-3 0  9997
2 61918  43.0013 289.4467 0001954 265.2746  94.7882 15.27595258 74579
