[{"OBJECT_NAME":"LEMUR-2-GREENBERG","OBJECT_ID":"2017-042N","EPOCH":"2026-03-09T11:05:17.256192","MEAN_MOTION":15.27971352,"ECCENTRICITY":0.00091572,"INCLINATION":97.3781,"RA_OF_ASC_NODE":249.8007,"ARG_OF_PERICENTER":4.0119,"MEAN_ANOMALY":356.1192,"EPHEMERIS_TYPE":0,"CLASSIFICATION_TYPE":"U","NORAD_CAT_ID":42837,"ELEMENT_SET_NO":999,"REV_AT_EPOCH":47314,"BSTAR":0.00072539172,"MEAN_MOTION_DOT":0.00019778,"MEAN_MOTION_DDOT":0},{"OBJECT_NAME":"STARLINK-32555","OBJECT_ID":"2024-207G","EPOCH":"2026-03-09T00:18:03.191616","MEAN_MOTION":15.27595258,"ECCENTRICITY":0.00019544,"INCLINATION":43.0013,"RA_OF_ASC_NODE":289.4467,"ARG_OF_PERICENTER":265.2746,"MEAN_ANOMALY":94.7882,"EPHEMERIS_TYPE":0,"CLASSIFICATION_TYPE":"U","NORAD_CAT_ID":61918,"ELEMENT_SET_NO":999,"REV_AT_EPOCH":7457,"BSTAR":0.0008758077,"MEAN_MOTION_DOT":0.00023928,"MEAN_MOTION_DDOT":0}]
